GLOBALSTAR M069         
1 31573U 07020C   26163.06930252 -.00000093  00000+0 -39799-5 0  9998
2 31573  52.0038 266.6125 0002445 137.6663  34.0372 12.23470982878172
GLOBALSTAR M072         
1 31574U 07020D   26163.19688346 -.00000091  00000+0 -90308-4 0  9997
2 31574  51.9917 113.5304 0001402 318.1374 148.5364 11.91658513874386
GLOBALSTAR M066         
1 32265U 07048C   26163.02848634 -.00000137  00000+0 -36270-3 0  9993
2 32265  51.9598  72.7209 0005399  32.9391 340.2162 12.30388196859592
GLOBALSTAR M079         
1 37188U 10054A   26163.13700126 -.00000101  00000+0  16386-4 0  9995
2 37188  52.0027 124.0429 0000593  11.0986   1.6453 12.62266088721919
GLOBALSTAR M074         
1 37189U 10054B   26163.18360523 -.00000113  00000+0 -48925-4 0  9992
2 37189  52.0001 123.1666 0000437  47.0019  57.8107 12.62268410722526
GLOBALSTAR M076         
1 37190U 10054C   26163.18971772 -.00000113  00000+0 -53909-4 0  9996
2 37190  52.0019 123.3506 0000624  35.7373 337.0579 12.62261789722244
GLOBALSTAR M077         
1 37191U 10054D   26163.24672772 -.00000051  00000+0  49800-3 0  9996
2 37191  51.9926 191.8362 0002814 163.6757 275.0212 11.67547684720563
GLOBALSTAR M075         
1 37192U 10054E   26163.30205575 -.00000087  00000+0  93575-4 0  9995
2 37192  51.9918 165.0669 0000057  27.8964  75.4244 12.62267388721324
GLOBALSTAR M073         
1 37193U 10054F   26163.06525065 -.00000117  00000+0 -71622-4 0  9992
2 37193  52.0062  79.8832 0000825  38.2349  67.0770 12.62262111723284
GLOBALSTAR M088         
1 37740U 11033B   26163.14575508 -.00000103  00000+0  55413-5 0  9999
2 37740  52.0227 294.2914 0000787 118.5806  52.4454 12.62268628687854
GLOBALSTAR M091         
1 37741U 11033C   26163.00030586 -.00000097  00000+0  36884-4 0  9999
2 37741  51.9999 257.7071 0000412 143.0987  27.7023 12.62263778688629
GLOBALSTAR M082         
1 38042U 11080C   26162.71981229 -.00000091  00000+0  69107-4 0  9990
2 38042  52.0098 351.1434 0000534  90.1443   6.0682 12.62269967668908
GLOBALSTAR M092         
1 38043U 11080D   26163.07148751 -.00000112  00000+0 -43288-4 0  9993
2 38043  52.0090  80.4692 0000610  55.6357 318.3717 12.62266930667403
GLOBALSTAR M090         
1 38044U 11080E   26163.23804285 -.00000098  00000+0  33458-4 0  9993
2 38044  52.0143 343.5202 0000807  85.2056  85.9936 12.62269002669085
GLOBALSTAR M097         
1 39072U 13005A   26162.54072705 -.00000099  00000+0  26173-4 0  9998
2 39072  52.0050 260.5247 0000401 125.4277 234.6627 12.62247179616198
GLOBALSTAR M093         
1 39073U 13005B   26162.51402443 -.00000093  00000+0  58383-4 0  9994
2 39073  52.0105 253.9508 0000270 105.8627 254.2270 12.62265790616147
GLOBALSTAR M094         
1 39074U 13005C   26163.30577568 -.00000085  00000+0  10290-3 0  9999
2 39074  51.9933 165.6618 0000298 348.4324  11.6535 12.62268620617858
GLOBALSTAR M096         
1 39075U 13005D   26162.44821407 -.00000079  00000+0  13649-3 0  9992
2 39075  52.0056 217.0709 0000125 175.8120 184.2747 12.62265487616663
GLOBALSTAR M078         
1 39076U 13005E   26163.05467746 -.00000185  00000+0 -45336-3 0  9990
2 39076  51.9889 299.2399 0000545 208.6837 151.3999 12.62258333615361
GLOBALSTAR M095         
1 39077U 13005F   26163.08144284 -.00000104  00000+0 -38224-5 0  9994
2 39077  52.0094 296.7556 0000328 125.6688 234.4210 12.62263372615223
GLOBALSTAR M087         
1 52888U 22064A   26163.01552254 -.00000110  00000+0 -36296-4 0  9990
2 52888  52.0000  78.1969 0000657  27.1044 332.9857 12.62268974190482
